[
    {
        "Altitude(m)": 611965.1678031924,
        "Argument of Periapsis(deg)": 0.0,
        "Eccentricity": 0.0,
        "Inclination(deg)": 60.0,
        "Latitude(deg)": 59.1401083573473,
        "Longitude(deg)": -96.03015820218786,
        "Mean Anomaly(deg)": -278.1818,
        "RAAN(deg)": 290.0,
        "Satellite Name": "Test1 1281",
        "Satellite Number": 1281,
        "Semi-Major Axis(m)": 6980739.136638005,
        "Time(s)": 0
    },
    {
        "Altitude(m)": 611995.7932656633,
        "Argument of Periapsis(deg)": 0.00010418945913296404,
        "Eccentricity": 0.0,
        "Inclination(deg)": 60.0,
        "Latitude(deg)": 59.28320807151946,
        "Longitude(deg)": -94.89679765737102,
        "Mean Anomaly(deg)": -277.5616938545382,
        "RAAN(deg)": 289.99957995086027,
        "Satellite Name": "Test1 1281",
        "Satellite Number": 1281,
        "Semi-Major Axis(m)": 6980739.136638005,
        "Time(s)": 10
    }
]